start=new Date('2022-11-20T00:00:00.000Z').valueOf();
sats=[{"ELEMENT_SET_NO":"999","EPOCH":"2022-11-19T17:43:58.280736","APOAPSIS":"574.252","BSTAR":"0.00007123100000","NORAD_CAT_ID":"49135","TLE_LINE2":"2 49135  70.0040  55.0935 0003162 270.7399  89.3398 14.98331140 66333","MEAN_ANOMALY":"89.3398","COUNTRY_CODE":"US","REV_AT_EPOCH":"6633","DECAY_DATE":null,"OBJECT_ID":"2021-082F","MEAN_ELEMENT_THEORY":"SGP4","GP_ID":"218236502","RCS_SIZE":"LARGE","MEAN_MOTION_DDOT":"0.0000000000000","ARG_OF_PERICENTER":"270.7399","MEAN_MOTION":"14.98331140","CLASSIFICATION_TYPE":"U","RA_OF_ASC_NODE":"55.0935","EPHEMERIS_TYPE":"0","SEMIMAJOR_AXIS":"6950.189","PERIOD":"96.107","PERIAPSIS":"569.857","OBJECT_NAME":"STARLINK-3073","REF_FRAME":"TEME","ECCENTRICITY":"0.00031620","INCLINATION":"70.0040","TIME_SYSTEM":"UTC","OBJECT_TYPE":"PAYLOAD","MEAN_MOTION_DOT":"0.00000757","CENTER_NAME":"EARTH","SITE":"AFWTR","TLE_LINE1":"1 49135U 21082F   22323.73886899  .00000757  00000-0  71231-4 0  9992","FILE":"3663561","LAUNCH_DATE":"2021-09-14"},{"ARG_OF_PERICENTER":"251.4678","MEAN_MOTION":"14.98333639","RA_OF_ASC_NODE":"75.5984","CLASSIFICATION_TYPE":"U","MEAN_MOTION_DDOT":"0.0000000000000","COUNTRY_CODE":"US","MEAN_ANOMALY":"108.6108","GP_ID":"218213124","MEAN_ELEMENT_THEORY":"SGP4","RCS_SIZE":"LARGE","REV_AT_EPOCH":"6581","OBJECT_ID":"2021-082G","DECAY_DATE":null,"ELEMENT_SET_NO":"999","TLE_LINE2":"2 49136  69.9994  75.5984 0003434 251.4678 108.6108 14.98333639 65819","EPOCH":"2022-11-19T12:46:47.696736","APOAPSIS":"574.433","BSTAR":"0.00015795000000","NORAD_CAT_ID":"49136","FILE":"3663492","TLE_LINE1":"1 49136U 21082G   22323.53249649  .00001792  00000-0  15795-3 0  9999","LAUNCH_DATE":"2021-09-14","MEAN_MOTION_DOT":"0.00001792","CENTER_NAME":"EARTH","SITE":"AFWTR","INCLINATION":"69.9994","REF_FRAME":"TEME","ECCENTRICITY":"0.00034340","OBJECT_TYPE":"PAYLOAD","TIME_SYSTEM":"UTC","PERIOD":"96.107","SEMIMAJOR_AXIS":"6950.182","EPHEMERIS_TYPE":"0","OBJECT_NAME":"STARLINK-3084","PERIAPSIS":"569.660"},{"MEAN_MOTION_DOT":"0.00001168","CENTER_NAME":"EARTH","SITE":"AFWTR","FILE":"3663561","TLE_LINE1":"1 49137U 21082H   22323.79475483  .00001168  00000-0  10564-3 0  9991","LAUNCH_DATE":"2021-09-14","PERIOD":"96.107","SEMIMAJOR_AXIS":"6950.170","EPHEMERIS_TYPE":"0","OBJECT_NAME":"STARLINK-3055","PERIAPSIS":"569.788","INCLINATION":"70.0000","ECCENTRICITY":"0.00032330","REF_FRAME":"TEME","OBJECT_TYPE":"PAYLOAD","TIME_SYSTEM":"UTC","MEAN_MOTION_DDOT":"0.0000000000000","MEAN_MOTION":"14.98337543","ARG_OF_PERICENTER":"263.3968","RA_OF_ASC_NODE":"74.9500","CLASSIFICATION_TYPE":"U","ELEMENT_SET_NO":"999","TLE_LINE2":"2 49137  70.0000  74.9500 0003233 263.3968  96.6823 14.98337543 65840","BSTAR":"0.00010564000000","NORAD_CAT_ID":"49137","APOAPSIS":"574.282","EPOCH":"2022-11-19T19:04:26.817312","COUNTRY_CODE":"US","MEAN_ANOMALY":"96.6823","RCS_SIZE":"LARGE","MEAN_ELEMENT_THEORY":"SGP4","GP_ID":"218235742","DECAY_DATE":null,"OBJECT_ID":"2021-082H","REV_AT_EPOCH":"6584"},{"ELEMENT_SET_NO":"999","TLE_LINE2":"2 49138  70.0002  95.3789 0003342 245.5824 114.4986 14.98333754 65325","APOAPSIS":"574.369","EPOCH":"2022-11-19T15:02:12.048576","BSTAR":"0.00015727000000","NORAD_CAT_ID":"49138","COUNTRY_CODE":"US","MEAN_ANOMALY":"114.4986","GP_ID":"218236998","MEAN_ELEMENT_THEORY":"SGP4","RCS_SIZE":"LARGE","REV_AT_EPOCH":"6532","OBJECT_ID":"2021-082J","DECAY_DATE":null,"MEAN_MOTION_DDOT":"0.0000000000000","ARG_OF_PERICENTER":"245.5824","MEAN_MOTION":"14.98333754","RA_OF_ASC_NODE":"95.3789","CLASSIFICATION_TYPE":"U","PERIOD":"96.107","EPHEMERIS_TYPE":"0","SEMIMAJOR_AXIS":"6950.181","OBJECT_NAME":"STARLINK-3058","PERIAPSIS":"569.724","INCLINATION":"70.0002","REF_FRAME":"TEME","ECCENTRICITY":"0.00033420","OBJECT_TYPE":"PAYLOAD","TIME_SYSTEM":"UTC","MEAN_MOTION_DOT":"0.00001784","CENTER_NAME":"EARTH","SITE":"AFWTR","FILE":"3663561","TLE_LINE1":"1 49138U 21082J   22323.62652834  .00001784  00000-0  15727-3 0  9991","LAUNCH_DATE":"2021-09-14"},{"MEAN_MOTION_DDOT":"0.0000000000000","MEAN_MOTION":"14.98334064","ARG_OF_PERICENTER":"266.0895","RA_OF_ASC_NODE":"55.1109","CLASSIFICATION_TYPE":"U","ELEMENT_SET_NO":"999","TLE_LINE2":"2 49139  70.0045  55.1109 0002998 266.0895  93.9921 14.98334064 66321","BSTAR":"0.00005714600000","NORAD_CAT_ID":"49139","EPOCH":"2022-11-19T17:30:13.586688","APOAPSIS":"574.129","COUNTRY_CODE":"US","MEAN_ANOMALY":"93.9921","RCS_SIZE":"LARGE","MEAN_ELEMENT_THEORY":"SGP4","GP_ID":"218237002","DECAY_DATE":null,"OBJECT_ID":"2021-082K","REV_AT_EPOCH":"6632","CENTER_NAME":"EARTH","MEAN_MOTION_DOT":"0.00000589","SITE":"AFWTR","FILE":"3663561","TLE_LINE1":"1 49139U 21082K   22323.72932392  .00000589  00000-0  57146-4 0  9997","LAUNCH_DATE":"2021-09-14","PERIOD":"96.107","EPHEMERIS_TYPE":"0","SEMIMAJOR_AXIS":"6950.180","OBJECT_NAME":"STARLINK-3057","PERIAPSIS":"569.962","INCLINATION":"70.0045","ECCENTRICITY":"0.00029980","REF_FRAME":"TEME","OBJECT_TYPE":"PAYLOAD","TIME_SYSTEM":"UTC"},{"OBJECT_NAME":"STARLINK-3118","PERIAPSIS":"569.908","PERIOD":"96.107","EPHEMERIS_TYPE":"0","SEMIMAJOR_AXIS":"6950.181","OBJECT_TYPE":"PAYLOAD","TIME_SYSTEM":"UTC","INCLINATION":"70.0022","REF_FRAME":"TEME","ECCENTRICITY":"0.00030760","SITE":"AFWTR","CENTER_NAME":"EARTH","MEAN_MOTION_DOT":"0.00002484","LAUNCH_DATE":"2021-09-14","FILE":"3663316","TLE_LINE1":"1 49140U 21082L   22323.31922760  .00002484  00000-0  21589-3 0  9999","TLE_LINE2":"2 49140  70.0022  56.1426 0003076 268.7909  91.2898 14.98333761 66264","EPOCH":"2022-11-19T07:39:41.264640","APOAPSIS":"574.184","NORAD_CAT_ID":"49140","BSTAR":"0.00021589000000","ELEMENT_SET_NO":"999","GP_ID":"218205733","MEAN_ELEMENT_THEORY":"SGP4","RCS_SIZE":"LARGE","REV_AT_EPOCH":"6626","DECAY_DATE":null,"OBJECT_ID":"2021-082L","COUNTRY_CODE":"US","MEAN_ANOMALY":"91.2898","MEAN_MOTION_DDOT":"0.0000000000000","RA_OF_ASC_NODE":"56.1426","CLASSIFICATION_TYPE":"U","ARG_OF_PERICENTER":"268.7909","MEAN_MOTION":"14.98333761"},{"TLE_LINE1":"1 49141U 21082M   22323.82205030  .00000140  00000-0  19515-4 0  9994","FILE":"3663561","LAUNCH_DATE":"2021-09-14","CENTER_NAME":"EARTH","MEAN_MOTION_DOT":"0.00000140","SITE":"AFWTR","ECCENTRICITY":"0.00032600","REF_FRAME":"TEME","INCLINATION":"70.0004","TIME_SYSTEM":"UTC","OBJECT_TYPE":"PAYLOAD","SEMIMAJOR_AXIS":"6950.202","EPHEMERIS_TYPE":"0","PERIOD":"96.107","PERIAPSIS":"569.801","OBJECT_NAME":"STARLINK-3093","MEAN_MOTION":"14.98327005","ARG_OF_PERICENTER":"252.9180","CLASSIFICATION_TYPE":"U","RA_OF_ASC_NODE":"94.8679","MEAN_MOTION_DDOT":"0.0000000000000","MEAN_ANOMALY":"107.1622","COUNTRY_CODE":"US","DECAY_DATE":null,"OBJECT_ID":"2021-082M","REV_AT_EPOCH":"6655","RCS_SIZE":"LARGE","MEAN_ELEMENT_THEORY":"SGP4","GP_ID":"218236242","ELEMENT_SET_NO":"999","NORAD_CAT_ID":"49141","BSTAR":"0.00001951500000","APOAPSIS":"574.333","EPOCH":"2022-11-19T19:43:45.145920","TLE_LINE2":"2 49141  70.0004  94.8679 0003260 252.9180 107.1622 14.98327005 66553"},{"ELEMENT_SET_NO":"999","TLE_LINE2":"2 49142  70.0017  55.9897 0003308 264.8986  95.1796 14.98337154 66270","NORAD_CAT_ID":"49142","BSTAR":"0.00031368000000","APOAPSIS":"574.335","EPOCH":"2022-11-19T09:08:57.841728","COUNTRY_CODE":"US","MEAN_ANOMALY":"95.1796","RCS_SIZE":"LARGE","MEAN_ELEMENT_THEORY":"SGP4","GP_ID":"218207233","DECAY_DATE":null,"OBJECT_ID":"2021-082N","REV_AT_EPOCH":"6627","MEAN_MOTION_DDOT":"0.0000000000000","MEAN_MOTION":"14.98337154","ARG_OF_PERICENTER":"264.8986","RA_OF_ASC_NODE":"55.9897","CLASSIFICATION_TYPE":"U","PERIOD":"96.107","SEMIMAJOR_AXIS":"6950.171","EPHEMERIS_TYPE":"0","OBJECT_NAME":"STARLINK-3042","PERIAPSIS":"569.737","INCLINATION":"70.0017","ECCENTRICITY":"0.00033080","REF_FRAME":"TEME","OBJECT_TYPE":"PAYLOAD","TIME_SYSTEM":"UTC","CENTER_NAME":"EARTH","MEAN_MOTION_DOT":"0.00003652","SITE":"AFWTR","FILE":"3663316","TLE_LINE1":"1 49142U 21082N   22323.38122502  .00003652  00000-0  31368-3 0  9998","LAUNCH_DATE":"2021-09-14"},{"SITE":"AFWTR","CENTER_NAME":"EARTH","MEAN_MOTION_DOT":"0.00000959","LAUNCH_DATE":"2021-09-14","TLE_LINE1":"1 49143U 21082P   22323.58970671  .00000959  00000-0  88119-4 0  9993","FILE":"3663561","PERIAPSIS":"569.368","OBJECT_NAME":"STARLINK-3109","EPHEMERIS_TYPE":"0","SEMIMAJOR_AXIS":"6950.174","PERIOD":"96.107","TIME_SYSTEM":"UTC","OBJECT_TYPE":"PAYLOAD","REF_FRAME":"TEME","ECCENTRICITY":"0.00038420","INCLINATION":"70.0001","MEAN_MOTION_DDOT":"0.0000000000000","CLASSIFICATION_TYPE":"U","RA_OF_ASC_NODE":"75.4491","ARG_OF_PERICENTER":"242.6979","MEAN_MOTION":"14.98336222","EPOCH":"2022-11-19T14:09:10.659744","APOAPSIS":"574.709","NORAD_CAT_ID":"49143","BSTAR":"0.00008811900000","TLE_LINE2":"2 49143  70.0001  75.4491 0003842 242.6979 117.3789 14.98336222 66926","ELEMENT_SET_NO":"999","REV_AT_EPOCH":"6692","DECAY_DATE":null,"OBJECT_ID":"2021-082P","MEAN_ELEMENT_THEORY":"SGP4","GP_ID":"218236503","RCS_SIZE":"LARGE","MEAN_ANOMALY":"117.3789","COUNTRY_CODE":"US"},{"MEAN_MOTION_DDOT":"0.0000000000000","RA_OF_ASC_NODE":"95.3964","CLASSIFICATION_TYPE":"U","MEAN_MOTION":"14.98330483","ARG_OF_PERICENTER":"256.0206","TLE_LINE2":"2 49144  69.9988  95.3964 0003144 256.0206 104.0603 14.98330483 65325","NORAD_CAT_ID":"49144","BSTAR":"0.00011549000000","APOAPSIS":"574.242","EPOCH":"2022-11-19T14:48:29.153376","ELEMENT_SET_NO":"999","RCS_SIZE":"LARGE","GP_ID":"218237253","MEAN_ELEMENT_THEORY":"SGP4","OBJECT_ID":"2021-082Q","DECAY_DATE":null,"REV_AT_EPOCH":"6532","COUNTRY_CODE":"US","MEAN_ANOMALY":"104.0603","SITE":"AFWTR","CENTER_NAME":"EARTH","MEAN_MOTION_DOT":"0.00001285","LAUNCH_DATE":"2021-09-14","FILE":"3663561","TLE_LINE1":"1 49144U 21082Q   22323.61700409  .00001285  00000-0  11549-3 0  9993","OBJECT_NAME":"STARLINK-3100","PERIAPSIS":"569.871","PERIOD":"96.107","SEMIMAJOR_AXIS":"6950.191","EPHEMERIS_TYPE":"0","OBJECT_TYPE":"PAYLOAD","TIME_SYSTEM":"UTC","INCLINATION":"69.9988","ECCENTRICITY":"0.00031440","REF_FRAME":"TEME"}];
